{"type":"FeatureCollection","name":"seccionales_2013_dissolved_14","features":[{"type":"Feature","properties":{"NOMBRE":"1","NUMERO":1},"geometry":{"type":"Polygon","coordinates":[[[-64.19058288067352,-31.410201598576116],[-64.19155306118037,-31.412378928554773],[-64.19157102748605,-31.412846587908835],[-64.19126560028944,-31.41386623054933],[-64.19213696611504,-31.41362090400914],[-64.1934574895827,-31.41714741135103],[-64.18816641255924,-31.41865763590656],[-64.18875930064677,-31.420098842756815],[-64.17676679160375,-31.423188163675963],[-64.17630865080886,-31.422122627758736],[-64.17523067246792,-31.421302386827712],[-64.1757516953327,-31.419707879257597],[-64.17615593721055,-31.417070749557617],[-64.17612898775202,-31.41631179442235],[-64.17565288065146,-31.41461753908787],[-64.19058288067352,-31.410201598576116]]]}},{"type":"Feature","properties":{"NOMBRE":"2","NUMERO":2},"geometry":{"type":"Polygon","coordinates":[[[-64.17600322361226,-31.405678110695504],[-64.17504202625824,-31.406345147191136],[-64.17396404791731,-31.407847878704853],[-64.17472761590881,-31.408039551912335],[-64.17520372300939,-31.408315560643285],[-64.17488931265994,-31.409611257445462],[-64.17476354852018,-31.41217959762973],[-64.1752935545378,-31.41205693223461],[-64.1752935545378,-31.413406242760214],[-64.17565288065146,-31.41461753908787],[-64.19058288067352,-31.410201598576116],[-64.18969354854224,-31.40775587542619],[-64.1881574294064,-31.407226854823367],[-64.18779810329275,-31.406000128906047],[-64.1874836929433,-31.403814983643976],[-64.18589367489042,-31.40408333755698],[-64.1794347879976,-31.404436030104243],[-64.17806934876573,-31.404758052576792],[-64.17619186982192,-31.405716446254708],[-64.17600322361226,-31.405678110695504]]]}},{"type":"Feature","properties":{"NOMBRE":"3","NUMERO":3},"geometry":{"type":"Polygon","coordinates":[[[-64.20318624410972,-31.39406171506775],[-64.20262030548072,-31.395035553930256],[-64.20245860872959,-31.39562598674696],[-64.2024406424239,-31.39771164177557],[-64.2027909853847,-31.3983097254773],[-64.20342878923643,-31.398723781192455],[-64.2041204920052,-31.399413869992447],[-64.20460558225862,-31.400318645399395],[-64.20471338009273,-31.402166507058805],[-64.20449778442452,-31.402795231776665],[-64.20421032353362,-31.403078923258214],[-64.20331200824948,-31.40325527158481],[-64.20290776637164,-31.403722976411448],[-64.20189267010059,-31.404098672043116],[-64.19791313339194,-31.405225749914344],[-64.19348443904123,-31.40606913266453],[-64.19047508283943,-31.40599246181863],[-64.187896917974,-31.406352814249722],[-64.1881574294064,-31.407226854823367],[-64.18969354854224,-31.40775587542619],[-64.19155306118037,-31.412378928554773],[-64.19157102748605,-31.412846587908835],[-64.19126560028944,-31.41386623054933],[-64.19213696611504,-31.41362090400914],[-64.1934574895827,-31.41714741135103],[-64.20013197214371,-31.41504685555128],[-64.20177588911365,-31.414364548109056],[-64.20303353051142,-31.413544239333767],[-64.21020208647869,-31.411274936570518],[-64.20318624410972,-31.39406171506775]]]}},{"type":"Feature","properties":{"NOMBRE":"4","NUMERO":4},"geometry":{"type":"Polygon","coordinates":[[[-64.16873585296372,-31.471385245701878],[-64.16882568449213,-31.475246683052298],[-64.16878076872793,-31.491893476496077],[-64.16908619592454,-31.51501634100696],[-64.16902331385465,-31.51974896805354],[-64.16862805512963,-31.5249561123908],[-64.19184052207129,-31.525048000566937],[-64.20906122606785,-31.525055657910872],[-64.23277674956861,-31.525055657910872],[-64.22435055220356,-31.513231971173806],[-64.22376664726889,-31.51210619241945],[-64.22189815147792,-31.507449766182038],[-64.22099085304096,-31.506316258897833],[-64.2162477483408,-31.501866344031768],[-64.21499909009589,-31.500525966720133],[-64.2062584823814,-31.48846936658611],[-64.20483016107966,-31.485995043605435],[-64.203509637612,-31.48257071777919],[-64.20278200223186,-31.48024179818594],[-64.20247657503526,-31.475093454446895],[-64.20286285060743,-31.47386761657238],[-64.20430913821487,-31.47238892827212],[-64.20451575073021,-31.471852610680415],[-64.20448880127168,-31.471423554394477],[-64.20293471583017,-31.465876292480875],[-64.20059909609144,-31.457179301831612],[-64.20118300102614,-31.455232904331627],[-64.20052723086872,-31.452167629412518],[-64.197796352405,-31.443990517921332],[-64.19475106359182,-31.43454801694836],[-64.19428393964408,-31.433888845807473],[-64.19349342219407,-31.43319901058013],[-64.19348443904123,-31.432831096383207],[-64.19397851244749,-31.432470845666252],[-64.18875930064677,-31.420098842756815],[-64.17676679160375,-31.423188163675963],[-64.17489829581278,-31.42379375063616],[-64.17451202024063,-31.423778419368954],[-64.173811334319,-31.42323415775953],[-64.17298488425762,-31.422866204459357],[-64.1728052212008,-31.42304251559584],[-64.17242792878146,-31.423011852813307],[-64.17103554009107,-31.424345674586053],[-64.16949942095523,-31.427204895265977],[-64.16939162312113,-31.427542170240866],[-64.16985874706887,-31.430462614173866],[-64.16956230302512,-31.43218724306412],[-64.16879873503362,-31.431742675096373],[-64.16877178557509,-31.44052633422289],[-64.16875381926941,-31.46597590091062],[-64.16816093118189,-31.467745848412658],[-64.16808906595917,-31.468887485108922],[-64.16873585296372,-31.471385245701878]],[[-64.19787720078057,-31.48872215750916],[-64.20031163520053,-31.49952258598482],[-64.19785471692435,-31.488680582086985],[-64.2027909853847,-31.486623206102436],[-64.19787720078057,-31.48872215750916]],[[-64.1897294811536,-31.499545564290074],[-64.18967846450391,-31.49671808290019],[-64.19020558825419,-31.507786752183364],[-64.1897294811536,-31.499545564290074]]]}},{"type":"Feature","properties":{"NOMBRE":"5","NUMERO":5},"geometry":{"type":"Polygon","coordinates":[[[-64.05703933053631,-31.442480701389705],[-64.05708424630052,-31.44664988178566],[-64.07302934259364,-31.450680934954246],[-64.07641599121477,-31.451286344308222],[-64.09027699604873,-31.45186875974103],[-64.10133525719625,-31.4511484032806],[-64.11376794072845,-31.451110086292438],[-64.11579813327056,-31.4507652326937],[-64.11848409597009,-31.449822626379934],[-64.12118802497528,-31.44754653788878],[-64.12487111764017,-31.44405182975379],[-64.13110542571197,-31.437882125535992],[-64.13366562427171,-31.43543712416773],[-64.13480648468254,-31.434532687439592],[-64.1362617554428,-31.43366656612188],[-64.13822008276219,-31.432861755954765],[-64.14182232705151,-31.43217191316929],[-64.14503829576866,-31.43166602523369],[-64.14702357254656,-31.431144804505415],[-64.15445263994623,-31.42781045628636],[-64.1562582536673,-31.427204895265977],[-64.17079299496436,-31.42476728097043],[-64.17103554009107,-31.424345674586053],[-64.17242792878146,-31.423011852813307],[-64.17231114779453,-31.422636232913636],[-64.17168232709565,-31.42224527999167],[-64.17080197811721,-31.423103841130832],[-64.16993061229161,-31.423548450060192],[-64.16951738726092,-31.42357144701645],[-64.16836754369724,-31.42333381152988],[-64.16597802504148,-31.422459921013342],[-64.16439699014144,-31.422107296218336],[-64.16074983008791,-31.42201530692333],[-64.15960896967707,-31.42167034626345],[-64.15862082286455,-31.420857767250094],[-64.1581536989168,-31.420114174625535],[-64.15778538965031,-31.417898693610894],[-64.15747097930087,-31.417055417191413],[-64.15684215860199,-31.416434454254162],[-64.15624927051446,-31.416242798196475],[-64.1549916291167,-31.41631946066654],[-64.15207210444332,-31.417791367942172],[-64.14979936677449,-31.41838165760046],[-64.14741883127158,-31.41841998796931],[-64.1468349263369,-31.418642303799743],[-64.14650254968177,-31.418642303799743],[-64.14411303102601,-31.41760738079582],[-64.14342132825725,-31.417086081921315],[-64.14283742332256,-31.416250464446296],[-64.1425409792788,-31.415100519971055],[-64.1418852091214,-31.41372823444941],[-64.14154384931342,-31.412194930792854],[-64.1416875797589,-31.41142826956738],[-64.14148096724354,-31.409350586153714],[-64.1417324955231,-31.406567491636054],[-64.14165164714753,-31.406076799745684],[-64.14144503463217,-31.40583145283833],[-64.13896568444801,-31.405187414154696],[-64.13762719467468,-31.405363758519396],[-64.13703430658714,-31.40570877914412],[-64.13696244136442,-31.40616113759694],[-64.13657616579225,-31.406199472958818],[-64.13353986013192,-31.405402094207005],[-64.13212950513586,-31.405363758519396],[-64.1312222066989,-31.405509434049],[-64.13078203220968,-31.405670443581787],[-64.1303508408733,-31.40613046929616],[-64.13013524520511,-31.407748208482236],[-64.12925489622668,-31.408300226846194],[-64.12876082282041,-31.408453564704317],[-64.1268204618067,-31.408269559244506],[-64.12377517299355,-31.40678216853127],[-64.12203244134236,-31.406153470522682],[-64.12041547383095,-31.405279419951537],[-64.1191847818917,-31.405064739618606],[-64.11868172533259,-31.405210415612363],[-64.11775646058994,-31.40593879218923],[-64.11418116575915,-31.406030797249414],[-64.11175571449203,-31.405440429878958],[-64.11126164108576,-31.405179747000886],[-64.11059688777551,-31.40546343127461],[-64.10986026924255,-31.40547876553525],[-64.10803668921577,-31.40588512252912],[-64.10726413807143,-31.406329813072063],[-64.10674311520664,-31.408806240827058],[-64.10613226081344,-31.41000226302526],[-64.1044883438435,-31.41153560251608],[-64.10258391544117,-31.41195726648297],[-64.10178441483829,-31.411466602777438],[-64.10150593710023,-31.410937603095363],[-64.09997880111722,-31.41040093370349],[-64.09738266994613,-31.41142826956738],[-64.09536146055684,-31.412616591796514],[-64.09479552192785,-31.41269325722993],[-64.09360974575281,-31.413390909795073],[-64.0931066891937,-31.41314558201192],[-64.09281024514995,-31.412355928854264],[-64.09191192986583,-31.41087626960594],[-64.09144480591809,-31.410347266595473],[-64.09090581674761,-31.410017596544204],[-64.09008834983906,-31.40993326215899],[-64.08786052793445,-31.411412936278968],[-64.08733950506966,-31.411650601967718],[-64.08627050988156,-31.411826934186465],[-64.08511168316504,-31.411259603257054],[-64.08406963743546,-31.409864261241978],[-64.08338691781954,-31.409388920212624],[-64.08209334381041,-31.40935825296675],[-64.08088960132969,-31.409910261858954],[-64.08009010072682,-31.410745935807785],[-64.07970382515464,-31.411803934350637],[-64.07911093706711,-31.412447927622456],[-64.07701786245514,-31.413544239333767],[-64.0748978383846,-31.41636545811851],[-64.07302934259364,-31.41709374810223],[-64.07205916208679,-31.416955756750017],[-64.07037032935264,-31.41731606707602],[-64.06627401165706,-31.41778370181828],[-64.06526789853885,-31.41814400896398],[-64.06276159889616,-31.419861198471132],[-64.0617914183893,-31.420367150097608],[-64.06039004654608,-31.42081943787747],[-64.05843171922669,-31.42075044496729],[-64.0572549262045,-31.420091176821508],[-64.05658118974141,-31.420305822773095],[-64.05619491416924,-31.420857767250094],[-64.05606016687662,-31.42111074071651],[-64.05680576856244,-31.422544244137445],[-64.05743458926132,-31.42549550571517],[-64.05743458926132,-31.42672197671257],[-64.05743458926132,-31.434639993948338],[-64.05738967349711,-31.44223544970718],[-64.05744357241416,-31.442679967909136],[-64.05703933053631,-31.442480701389705]],[[-64.1413192704924,-31.42920553134836],[-64.14038502259692,-31.42298885571983],[-64.14182232705151,-31.43217191316929],[-64.1413192704924,-31.42920553134836]],[[-64.10977043771412,-31.42724322202878],[-64.1156497154468,-31.42736199101476],[-64.10959975781014,-31.42725088737945],[-64.10926738115502,-31.42724322202878],[-64.05743458926132,-31.42672197671257],[-64.10977043771412,-31.42724322202878]],[[-64.13437529334617,-31.42134838183613],[-64.13428546181775,-31.41792935806512],[-64.13436631019331,-31.420305822773095],[-64.13464478793139,-31.4235254530983],[-64.13437529334617,-31.42134838183613]]]}},{"type":"Feature","properties":{"NOMBRE":"6","NUMERO":6},"geometry":{"type":"Polygon","coordinates":[[[-64.1566265629338,-31.41634245939534],[-64.15747097930087,-31.417055417191413],[-64.15778538965031,-31.417898693610894],[-64.1581536989168,-31.420114174625535],[-64.15862082286455,-31.420857767250094],[-64.15960896967707,-31.42167034626345],[-64.16074983008791,-31.42201530692333],[-64.16439699014144,-31.422107296218336],[-64.16597802504148,-31.422459921013342],[-64.16836754369724,-31.42333381152988],[-64.16951738726092,-31.42357144701645],[-64.16993061229161,-31.423548450060192],[-64.17057739929618,-31.423241823437937],[-64.17151164719165,-31.422490583976337],[-64.17170029340133,-31.422206951186116],[-64.1714577482746,-31.421877322811643],[-64.1718709733053,-31.42006051307405],[-64.17275132228374,-31.417883361380028],[-64.17364963756786,-31.415897816305854],[-64.17439523925368,-31.41373590090473],[-64.1744671044764,-31.412248596844027],[-64.17476354852018,-31.41217959762973],[-64.17488931265994,-31.409611257445462],[-64.17520372300939,-31.408315560643285],[-64.17472761590881,-31.408039551912335],[-64.17396404791731,-31.407847878704853],[-64.17386523323604,-31.4081545556489],[-64.17370353648491,-31.408100887256037],[-64.17323641253716,-31.40871423848805],[-64.17339810928831,-31.408852241962734],[-64.15935744139752,-31.40510307542836],[-64.1543358589593,-31.403745978228038],[-64.15196430660922,-31.4023888614038],[-64.14696069047667,-31.400525669054577],[-64.14377167121805,-31.39939086711418],[-64.14246911405607,-31.399107164485443],[-64.13108745940627,-31.397849661429564],[-64.12817691788574,-31.397742312827326],[-64.12777267600788,-31.397757648349447],[-64.12761948961206,-31.39845823689903],[-64.12773674339651,-31.397757648349447],[-64.12337093111569,-31.3980183518422],[-64.11666949909616,-31.39742793407174],[-64.11268996238752,-31.3967685020422],[-64.10914161701524,-31.3967685020422],[-64.10386850629746,-31.396262423157054],[-64.08228199002006,-31.390242942381015],[-64.05756933655394,-31.383264462596216],[-64.05758730285962,-31.402312187551235],[-64.05738967349711,-31.40238119402136],[-64.0573447577329,-31.40340861768643],[-64.05729085881586,-31.412907920110225],[-64.0572998419687,-31.41385089765936],[-64.05756933655394,-31.413965894273034],[-64.05740763980279,-31.420098842756815],[-64.05843171922669,-31.42075044496729],[-64.06039004654608,-31.42081943787747],[-64.0617914183893,-31.420367150097608],[-64.06276159889616,-31.419861198471132],[-64.06526789853885,-31.41814400896398],[-64.06627401165706,-31.41778370181828],[-64.07037032935264,-31.41731606707602],[-64.07205916208679,-31.416955756750017],[-64.07302934259364,-31.41709374810223],[-64.0748978383846,-31.41636545811851],[-64.07701786245514,-31.413544239333767],[-64.07911093706711,-31.412447927622456],[-64.07970382515464,-31.411803934350637],[-64.08009010072682,-31.410745935807785],[-64.08088960132969,-31.409910261858954],[-64.08209334381041,-31.40935825296675],[-64.08338691781954,-31.409388920212624],[-64.08406963743546,-31.409864261241978],[-64.08511168316504,-31.411259603257054],[-64.08627050988156,-31.411826934186465],[-64.08694424634464,-31.411750268045125],[-64.08733950506966,-31.411650601967718],[-64.09008834983906,-31.40993326215899],[-64.09090581674761,-31.410017596544204],[-64.09144480591809,-31.410347266595473],[-64.09191192986583,-31.41087626960594],[-64.09281024514995,-31.412355928854264],[-64.0931066891937,-31.41314558201192],[-64.09360974575281,-31.413390909795073],[-64.09479552192785,-31.41269325722993],[-64.09536146055684,-31.412616591796514],[-64.09738266994613,-31.41142826956738],[-64.09997880111722,-31.41040093370349],[-64.10150593710023,-31.410937603095363],[-64.10178441483829,-31.411466602777438],[-64.10258391544117,-31.41195726648297],[-64.1044883438435,-31.41153560251608],[-64.10613226081344,-31.41000226302526],[-64.10674311520664,-31.408806240827058],[-64.10726413807143,-31.406329813072063],[-64.10803668921577,-31.40588512252912],[-64.10912365070955,-31.405616773768223],[-64.11059688777551,-31.40546343127461],[-64.11126164108576,-31.405179747000886],[-64.11175571449203,-31.405440429878958],[-64.11418116575915,-31.406030797249414],[-64.11775646058994,-31.40593879218923],[-64.11868172533259,-31.405210415612363],[-64.1191847818917,-31.405064739618606],[-64.12041547383095,-31.405279419951537],[-64.12203244134236,-31.406153470522682],[-64.12377517299355,-31.40678216853127],[-64.1268204618067,-31.408269559244506],[-64.1288237048903,-31.40844589781736],[-64.13013524520511,-31.407748208482236],[-64.1303508408733,-31.40613046929616],[-64.13078203220968,-31.405670443581787],[-64.1312222066989,-31.405509434049],[-64.13212950513586,-31.405363758519396],[-64.13353986013192,-31.405402094207005],[-64.13657616579225,-31.406199472958818],[-64.13696244136442,-31.40616113759694],[-64.13703430658714,-31.40570877914412],[-64.13762719467468,-31.405363758519396],[-64.13896568444801,-31.405187414154696],[-64.14132825364524,-31.405785450221796],[-64.14160673138332,-31.40594645928102],[-64.1417324955231,-31.406567491636054],[-64.14148096724354,-31.409350586153714],[-64.14155283246627,-31.41028593272014],[-64.1416875797589,-31.41142826956738],[-64.1415168998549,-31.412033932455167],[-64.14181334389868,-31.41349824049847],[-64.14311590106064,-31.41673343692226],[-64.14424777831863,-31.4176917082827],[-64.14650254968177,-31.418642303799743],[-64.1468349263369,-31.418642303799743],[-64.14741883127158,-31.41841998796931],[-64.14979936677449,-31.41838165760046],[-64.15138040167454,-31.418036683575956],[-64.15526112370195,-31.416250464446296],[-64.15600672538775,-31.416204466937945],[-64.1566265629338,-31.41634245939534]],[[-64.1267659958468,-31.401766298478172],[-64.12713408691552,-31.400678161711348],[-64.12704504062775,-31.401085397391704],[-64.1267659958468,-31.401766298478172]],[[-64.12560773617315,-31.404244349536466],[-64.12644515263099,-31.402549186407345],[-64.12628147263625,-31.402948578629932],[-64.12560773617315,-31.404244349536466]],[[-64.08671966752362,-31.41143593621064],[-64.08663881914805,-31.410814936076427],[-64.08669577690775,-31.41070871254983],[-64.08671966752362,-31.41143593621064]]]}},{"type":"Feature","properties":{"NOMBRE":"7","NUMERO":7},"geometry":{"type":"Polygon","coordinates":[[[-64.18966833002204,-31.37616867662358],[-64.18973846430644,-31.376523218921445],[-64.18978338007065,-31.375963344164322],[-64.19020558825419,-31.375165708611018],[-64.1907984763417,-31.37474387937902],[-64.19179560630708,-31.3743527269444],[-64.20352760391768,-31.371246458625514],[-64.2059081394206,-31.37076325210258],[-64.20326709248528,-31.35672616888072],[-64.20260233917503,-31.3529135499251],[-64.20276403592618,-31.351540355536514],[-64.20747120801497,-31.344290477400623],[-64.20792934880986,-31.34317801278814],[-64.20801019718544,-31.336671749416297],[-64.20836054014624,-31.335559194717653],[-64.21004937288039,-31.332144720585124],[-64.21114531752701,-31.327118696219586],[-64.21509790477714,-31.31952927458083],[-64.21738860875165,-31.315699799308202],[-64.21808031152041,-31.314233966961133],[-64.21800844629769,-31.314003729440817],[-64.21953558228068,-31.3107112713303],[-64.22073034160857,-31.308523910359153],[-64.18466298295117,-31.308523910359153],[-64.1840161959466,-31.308631360856236],[-64.17799748354301,-31.30861601079274],[-64.17771002265208,-31.308393434590776],[-64.17744052806685,-31.30861601079274],[-64.17353285658093,-31.30885393649605],[-64.17330827775989,-31.30777175344784],[-64.17290403588206,-31.307602901070926],[-64.17230216464169,-31.308032706525964],[-64.17108943900811,-31.30820155813251],[-64.17105350639676,-31.308646710917248],[-64.17091875910414,-31.308692761085265],[-64.17035282047514,-31.308546935475988],[-64.168663987741,-31.308523910359153],[-64.16457665319825,-31.309122561567875],[-64.16623853647388,-31.316121893397312],[-64.17596729100089,-31.313144171058724],[-64.1757516953327,-31.33333404586003],[-64.17574271217987,-31.33591214452935],[-64.17585051001396,-31.336134655686788],[-64.17589542577817,-31.338352065714478],[-64.17617390351623,-31.338520862953438],[-64.17608407198783,-31.357439579402662],[-64.17609305514067,-31.374137975895724],[-64.17581457740259,-31.39937553185887],[-64.17582356055543,-31.405509434049],[-64.17600322361226,-31.405678110695504],[-64.17619186982192,-31.405716446254708],[-64.17806934876573,-31.404758052576792],[-64.1794347879976,-31.404436030104243],[-64.18589367489042,-31.40408333755698],[-64.1874836929433,-31.403814983643976],[-64.18822929462912,-31.40361563452617],[-64.18986422844623,-31.40287957257696],[-64.19165187586162,-31.401553113031312],[-64.19268493843836,-31.400211299620644],[-64.19339460751281,-31.39885413168775],[-64.19371800101509,-31.396737830672276],[-64.19194831990538,-31.386922477656032],[-64.19175069054288,-31.38696082087486],[-64.19176680850137,-31.3870633284016],[-64.18966833002204,-31.37616867662358]],[[-64.1892264245945,-31.374690191886373],[-64.1893791381928,-31.374667182951555],[-64.18919049198313,-31.374828245376925],[-64.1892264245945,-31.374690191886373]],[[-64.17942908839449,-31.37626698729447],[-64.1810697218147,-31.37622410816492],[-64.17974919834704,-31.376323811856228],[-64.17942908839449,-31.37626698729447]],[[-64.17816816344698,-31.37587130963837],[-64.17803740443394,-31.375762087845036],[-64.1791988843085,-31.37622612241977],[-64.17884189991007,-31.376162751994602],[-64.17816816344698,-31.37587130963837]],[[-64.19192424676568,-31.388064603609443],[-64.19193035359969,-31.388103441611545],[-64.19192624545055,-31.38820280537852],[-64.19192424676568,-31.388064603609443]],[[-64.19190513644975,-31.38871336693321],[-64.19187645468264,-31.389407085875153],[-64.19179008057144,-31.389746783772075],[-64.19190513644975,-31.38871336693321]],[[-64.19150405941463,-31.390871658186075],[-64.19137339812355,-31.391385523182517],[-64.19109670664152,-31.391852617955895],[-64.19150405941463,-31.390871658186075]],[[-64.19044626495038,-31.392950647356567],[-64.19016965564282,-31.39341759562439],[-64.18987137674921,-31.39370018880345],[-64.19044626495038,-31.392950647356567]],[[-64.18889424901418,-31.394625925964284],[-64.18853472182572,-31.394966542059947],[-64.18826381986962,-31.39511751745388],[-64.18889424901418,-31.394625925964284]],[[-64.18966659908371,-31.374314378578852],[-64.18829440158996,-31.367477948884456],[-64.18864251965981,-31.36879205054548],[-64.18966659908371,-31.374314378578852]],[[-64.2065189938138,-31.340323905476446],[-64.20773171944735,-31.3407842512218],[-64.20620340903936,-31.340288900438342],[-64.2065189938138,-31.340323905476446]],[[-64.18889404793937,-31.337032367771663],[-64.19253263777131,-31.33831159993006],[-64.1921279829622,-31.33824464913202],[-64.18889404793937,-31.337032367771663]]]}},{"type":"Feature","properties":{"NOMBRE":"8","NUMERO":8},"geometry":{"type":"Polygon","coordinates":[[[-64.15196430660922,-31.4023888614038],[-64.15402144860985,-31.403600299961106],[-64.15474908399,-31.403891656268843],[-64.17339810928831,-31.408852241962734],[-64.17323641253716,-31.40871423848805],[-64.17370353648491,-31.408100887256037],[-64.17386523323604,-31.4081545556489],[-64.17453896969914,-31.40692017484744],[-64.17504202625824,-31.406345147191136],[-64.17600322361226,-31.405678110695504],[-64.17582356055543,-31.405509434049],[-64.17581457740259,-31.39937553185887],[-64.17430540772527,-31.39957488998245],[-64.17277827174226,-31.399620895643146],[-64.1699934943615,-31.39920684388514],[-64.15146125005012,-31.393279569454474],[-64.1423433499163,-31.39103278159984],[-64.12660486613852,-31.387374926640668],[-64.082398771007,-31.377205801440716],[-64.07863482996655,-31.376323811856228],[-64.06232142440693,-31.37249664809863],[-64.06242922224102,-31.372189854675923],[-64.06153989010974,-31.371967428818113],[-64.0581083257244,-31.37117742927436],[-64.05809934257157,-31.371507235716695],[-64.05757831970678,-31.37139218708921],[-64.05756933655394,-31.383264462596216],[-64.08228199002006,-31.390242942381015],[-64.10386850629746,-31.396262423157054],[-64.10914161701524,-31.3967685020422],[-64.11268996238752,-31.3967685020422],[-64.11666949909616,-31.39742793407174],[-64.12337093111569,-31.3980183518422],[-64.12777267600788,-31.397757648349447],[-64.13108745940627,-31.397849661429564],[-64.14243318144472,-31.399107164485443],[-64.14457117182091,-31.39965156607109],[-64.15196430660922,-31.4023888614038]]]}},{"type":"Feature","properties":{"NOMBRE":"9","NUMERO":9},"geometry":{"type":"Polygon","coordinates":[[[-64.19367308525088,-31.395994046883697],[-64.19362816948669,-31.397849661429564],[-64.19321494445597,-31.39923751444837],[-64.1922357807963,-31.40084770494397],[-64.19130153290081,-31.401898147665037],[-64.18986422844623,-31.40287957257696],[-64.18822929462912,-31.40361563452617],[-64.1874836929433,-31.403814983643976],[-64.187896917974,-31.406352814249722],[-64.19047508283943,-31.40599246181863],[-64.19348443904123,-31.40606913266453],[-64.19791313339194,-31.405225749914344],[-64.20189267010059,-31.404098672043116],[-64.20290776637164,-31.403722976411448],[-64.20331200824948,-31.40325527158481],[-64.20421032353362,-31.403078923258214],[-64.20464151486999,-31.4025345415511],[-64.20470439693987,-31.400625346947937],[-64.2041204920052,-31.399413869992447],[-64.20253047395231,-31.3980183518422],[-64.20238674350685,-31.396285426801928],[-64.20262030548072,-31.395035553930256],[-64.20338387347222,-31.393762660161446],[-64.20413845831088,-31.392926834987268],[-64.20521643665182,-31.392198357436712],[-64.20600695410185,-31.391791941189176],[-64.20835155699339,-31.391423864579057],[-64.21081294087188,-31.391408528022318],[-64.21276228503842,-31.391738263440068],[-64.2157896075459,-31.393302573830216],[-64.21602316951979,-31.393563289694722],[-64.21609503474251,-31.394038710877997],[-64.2171819962363,-31.3946751580483],[-64.2190594751801,-31.395388280475085],[-64.21946371705796,-31.395426620237068],[-64.22133221284892,-31.395150573601352],[-64.2226347700109,-31.394567805816045],[-64.22493445713825,-31.394138395659514],[-64.22495242344392,-31.393777996333665],[-64.22569802512976,-31.393333246322438],[-64.2281953416196,-31.392673785531414],[-64.22964162922703,-31.392091002372478],[-64.23168080492198,-31.39162323958864],[-64.23284861479134,-31.391132469572753],[-64.232642002276,-31.390158590227138],[-64.23214792886972,-31.38952978087404],[-64.22833008891222,-31.387643327550606],[-64.22773720082469,-31.386914809010385],[-64.2265154920383,-31.386354996187034],[-64.2233534222382,-31.382742972955533],[-64.2224371406484,-31.3833258141283],[-64.22360495051775,-31.382451551012917],[-64.223703765199,-31.381569610678092],[-64.22313782657001,-31.380411572098645],[-64.22322765809841,-31.37991307427503],[-64.22373071465752,-31.379360888982415],[-64.22351511898934,-31.379161487940195],[-64.22192510093645,-31.371944419216568],[-64.220649493233,-31.366360589338537],[-64.22033508288355,-31.36586201696634],[-64.22050576278754,-31.365685598416555],[-64.22021830189662,-31.364895546066595],[-64.22037999864776,-31.3647114552447],[-64.22020033559093,-31.3645350345354],[-64.21992185785287,-31.364665432482887],[-64.21977879916496,-31.36446862893253],[-64.22355105160071,-31.36191169622515],[-64.22340732115525,-31.36179663585142],[-64.22239222488419,-31.362502337259933],[-64.22193408408928,-31.36209579253018],[-64.22052372909323,-31.363077633401403],[-64.22013745352105,-31.362671091159676],[-64.21848455339827,-31.354808371827193],[-64.21813421043746,-31.354862070676965],[-64.2181881093545,-31.35512289322538],[-64.2115136267935,-31.356066451107758],[-64.21147769418214,-31.355836315911933],[-64.20566559429388,-31.357915183410032],[-64.20618661715866,-31.36067670752427],[-64.20490202630238,-31.360860806247793],[-64.20487507684386,-31.36069204909834],[-64.20403964362963,-31.36079944004668],[-64.2059530551848,-31.370671212483177],[-64.20583627419786,-31.3708016019174],[-64.20568356059957,-31.370732572239465],[-64.20352760391768,-31.371246458625514],[-64.19179560630708,-31.3743527269444],[-64.1907984763417,-31.37474387937902],[-64.19020558825419,-31.375165708611018],[-64.18978338007065,-31.375963344164322],[-64.18973846430644,-31.376523218921445],[-64.19175069054288,-31.38696082087486],[-64.19194831990538,-31.386922477656032],[-64.19201120197526,-31.387221554347715],[-64.19207090466305,-31.38716152745559],[-64.19367308525088,-31.395994046883697]],[[-64.19218057853307,-31.38705125792209],[-64.19241544385312,-31.386815116560033],[-64.19446360270092,-31.38550376755417],[-64.19218057853307,-31.38705125792209]],[[-64.20595537507513,-31.372028232650088],[-64.20679747155187,-31.376615252808786],[-64.20598000464332,-31.372281892807912],[-64.20595537507513,-31.372028232650088]],[[-64.21200770019978,-31.375227065432448],[-64.2075430732377,-31.376431184943943],[-64.20679747155187,-31.376615252808786],[-64.21200770019978,-31.375227065432448]],[[-64.2178826821579,-31.36577764291863],[-64.21486434280327,-31.367771918329453],[-64.2147564313611,-31.367827709207358],[-64.2178826821579,-31.36577764291863]],[[-64.21418978155056,-31.368120670093667],[-64.21388517914357,-31.368278150738],[-64.21226821163216,-31.368914772471907],[-64.21418978155056,-31.368120670093667]]]}},{"type":"Feature","properties":{"NOMBRE":"10","NUMERO":10},"geometry":{"type":"Polygon","coordinates":[[[-64.23277674956861,-31.525055657910872],[-64.23760968579718,-31.52494845503871],[-64.28668464976862,-31.52500205649017],[-64.30978931887618,-31.52500205649017],[-64.30978931887618,-31.49232243892425],[-64.3097713525705,-31.43662514220296],[-64.25338410218632,-31.43314535651634],[-64.25280019725163,-31.433275659189405],[-64.25214442709422,-31.43306870780053],[-64.24280194813939,-31.432424856113386],[-64.23050401189978,-31.431620035285995],[-64.22888704438837,-31.431512725320296],[-64.21114531752701,-31.430217331043647],[-64.21068717673211,-31.429972047271715],[-64.21040869899404,-31.429427821611288],[-64.21046259791109,-31.42918253577384],[-64.21078599141336,-31.428975575349348],[-64.21028293485426,-31.42759582751138],[-64.20877376517694,-31.421172067514703],[-64.20633933075698,-31.412509260084466],[-64.20303353051142,-31.413544239333767],[-64.20177588911365,-31.414364548109056],[-64.20013197214371,-31.41504685555128],[-64.1934574895827,-31.41714741135103],[-64.18816641255924,-31.41865763590656],[-64.19146322965194,-31.426530341676678],[-64.19397851244749,-31.432470845666252],[-64.19348443904123,-31.432831096383207],[-64.19349342219407,-31.43319901058013],[-64.19428393964408,-31.433888845807473],[-64.19475106359182,-31.43454801694836],[-64.197796352405,-31.443990517921332],[-64.20052723086872,-31.452167629412518],[-64.20118300102614,-31.455232904331627],[-64.20064401185566,-31.457079684044082],[-64.20293471583017,-31.465876292480875],[-64.20451575073021,-31.471852610680415],[-64.20415642461657,-31.472626439366643],[-64.20293471583017,-31.47376035499447],[-64.20255742341084,-31.474587798269155],[-64.20247657503526,-31.475093454446895],[-64.20278200223186,-31.480165188004015],[-64.20451575073021,-31.485251967888665],[-64.20565661114104,-31.4875654419391],[-64.21499909009589,-31.500525966720133],[-64.2162477483408,-31.501866344031768],[-64.22099085304096,-31.506316258897833],[-64.22189815147792,-31.507449766182038],[-64.22409004077117,-31.512795446327832],[-64.22937213464179,-31.52033861514649],[-64.23277674956861,-31.525055657910872]],[[-64.22388342825583,-31.463263448898967],[-64.22075729106709,-31.463677217844346],[-64.20293471583017,-31.465876292480875],[-64.22388342825583,-31.463263448898967]],[[-64.22943181057315,-31.438175670631935],[-64.22942603355884,-31.437889790016808],[-64.22985722489523,-31.436916395939114],[-64.22943181057315,-31.438175670631935]],[[-64.23061410230935,-31.44012982743044],[-64.22943501671168,-31.43833432883143],[-64.2294332148091,-31.438245160347034],[-64.23061410230935,-31.44012982743044]],[[-64.23094418638901,-31.440656626635374],[-64.23194131635438,-31.442802593248942],[-64.23088775503255,-31.440566564962374],[-64.23094418638901,-31.440656626635374]],[[-64.23291149686122,-31.44688745816996],[-64.23288830216897,-31.446927991546893],[-64.23289704155069,-31.44686536302139],[-64.23291149686122,-31.44688745816996]],[[-64.23235772732414,-31.448162443232437],[-64.23232759192655,-31.447952712615717],[-64.23235507195001,-31.44791099093641],[-64.23235772732414,-31.448162443232437]],[[-64.2329505066566,-31.44986648830969],[-64.23249827183054,-31.44914057199482],[-64.23246541727957,-31.44891191949499],[-64.2329505066566,-31.44986648830969]],[[-64.23335658822624,-31.450349347771063],[-64.23318099144646,-31.450236454709998],[-64.23308738458408,-31.450086200312146],[-64.23335658822624,-31.450349347771063]],[[-64.23406324616865,-31.450714687212084],[-64.2338008289925,-31.450634954337122],[-64.23364457015622,-31.45053449416116],[-64.23406324616865,-31.450714687212084]],[[-64.2376366352557,-31.451255690764086],[-64.23511236930732,-31.451033452269098],[-64.23473663635319,-31.450919289878303],[-64.2376366352557,-31.451255690764086]],[[-64.24286431025854,-31.451730801122807],[-64.24286431027826,-31.45173080722402],[-64.23027943307876,-31.451431948505896],[-64.23756477003298,-31.451546899028415],[-64.23700542488803,-31.451519853115002],[-64.23789714668808,-31.451554562391564],[-64.24286431025854,-31.451730801122807]],[[-64.23780731515969,-31.48161310983225],[-64.23308217676521,-31.48162843163655],[-64.22687404424022,-31.48163414906937],[-64.22725211057127,-31.481620770734715],[-64.23780731515969,-31.48161310983225]],[[-64.22955179769863,-31.499744709365693],[-64.23097113584753,-31.505144442998805],[-64.22478280160742,-31.48170815018618],[-64.22478282760314,-31.481708149266293],[-64.22955179769863,-31.499744709365693]],[[-64.27557894037233,-31.484929651460266],[-64.2763001250842,-31.485244307283526],[-64.27559943916259,-31.48494554319388],[-64.27557894037233,-31.484929651460266]],[[-64.27036568901421,-31.472393033591967],[-64.27009276647094,-31.472404251586727],[-64.25889975803081,-31.472358281635383],[-64.27036568901421,-31.472393033591967]],[[-64.24205634645357,-31.482134049771016],[-64.24233482419164,-31.481597788025436],[-64.24217312744051,-31.481942528071855],[-64.24205634645357,-31.482134049771016]],[[-64.25579158714775,-31.49539405882549],[-64.25817038587743,-31.498081320126957],[-64.2522881575397,-31.491970077073965],[-64.24587418641107,-31.485451143402052],[-64.25579158714775,-31.49539405882549]],[[-64.27153879354232,-31.472344815205645],[-64.27149413831415,-31.46347033360022],[-64.27158396984258,-31.472342958313245],[-64.27153879354232,-31.472344815205645]],[[-64.2387064882515,-31.472351310946703],[-64.23876851251369,-31.472342958313245],[-64.2388014869736,-31.47238196854629],[-64.2387064882515,-31.472351310946703]],[[-64.22100881934664,-31.48244048367423],[-64.21719097938914,-31.48244048367423],[-64.20959123208549,-31.482463466176515],[-64.21461281452372,-31.482371536133506],[-64.22100881934664,-31.48244048367423]],[[-64.21204363281113,-31.43620358913982],[-64.21281618395547,-31.43612694292464],[-64.21288631758786,-31.436181579034233],[-64.21204363281113,-31.43620358913982]],[[-64.21294053173312,-31.43622381338529],[-64.21302279647082,-31.436287899904116],[-64.21312277986505,-31.436699730223463],[-64.21294053173312,-31.43622381338529]],[[-64.21345743922907,-31.438078174690236],[-64.21354381933561,-31.438433966552353],[-64.213538332396,-31.43846160947257],[-64.21345743922907,-31.438078174690236]],[[-64.2353459312812,-31.45143961187845],[-64.23407032357774,-31.4511484032806],[-64.23545114581474,-31.45144469930249],[-64.2353459312812,-31.45143961187845]]]}},{"type":"Feature","properties":{"NOMBRE":"11","NUMERO":11},"geometry":{"type":"Polygon","coordinates":[[[-64.30978931887618,-31.420558797728255],[-64.30978931887618,-31.41161993546107],[-64.30978931887618,-31.399682236489006],[-64.31011271237846,-31.393762660161446],[-64.31008576291993,-31.362931892045225],[-64.31002288085004,-31.33659502192834],[-64.30586368108457,-31.33663338568014],[-64.30591758000162,-31.335858434860793],[-64.30488451742488,-31.335835416422025],[-64.30470485436805,-31.337101422192692],[-64.30476773643795,-31.339318809438364],[-64.30435451140725,-31.339196048881142],[-64.3037975559311,-31.338083524028406],[-64.30350111188734,-31.337899380715008],[-64.30253093138049,-31.33799145241675],[-64.30092294702192,-31.340032352006055],[-64.30086006495203,-31.340999078465465],[-64.29960242355426,-31.342418460426533],[-64.29951259202585,-31.342901812638914],[-64.29836274846218,-31.343646016745417],[-64.29859631043604,-31.34505001464766],[-64.29830884954514,-31.345165095513742],[-64.29786867505591,-31.344888901198637],[-64.29752731524795,-31.344950277783184],[-64.29508389767514,-31.346722509389163],[-64.29499406614673,-31.347098433013052],[-64.29519169550923,-31.347742870015708],[-64.2960989939462,-31.34907008945561],[-64.29342201439952,-31.350504692873574],[-64.29331421656542,-31.35028988733766],[-64.29371845844328,-31.34819550765167],[-64.29344896385804,-31.34729023020152],[-64.29313455350861,-31.347021714028156],[-64.29101452943809,-31.34682224437458],[-64.29070011908864,-31.346661133960968],[-64.29059232125454,-31.34558705748484],[-64.2900173994727,-31.34605504945714],[-64.28939756192666,-31.346216160908856],[-64.29025096144657,-31.349522720704417],[-64.29019706252953,-31.3497068412671],[-64.28991858479145,-31.34999069309505],[-64.2900353657784,-31.352399563312026],[-64.28961315759484,-31.3537574024513],[-64.28891247167324,-31.354210011140797],[-64.28775364495672,-31.355544810521966],[-64.28716974002205,-31.35952608233433],[-64.28673854868566,-31.359894283927286],[-64.28653193617032,-31.359924967328272],[-64.28676549814419,-31.358482836656567],[-64.28617261005667,-31.35833708817704],[-64.28532819368961,-31.35770806583157],[-64.28422326589013,-31.35653439093556],[-64.28320816961907,-31.35423302508376],[-64.28296562449238,-31.35398754273514],[-64.28293867503385,-31.353580961185582],[-64.28258833207303,-31.353228077660983],[-64.28260629837872,-31.35287519281216],[-64.28206730920824,-31.35257600679436],[-64.28200442713836,-31.352062018336408],[-64.28166306733038,-31.351455968635218],[-64.28186967984574,-31.35013645451163],[-64.28158221895482,-31.349200508852398],[-64.28197747767983,-31.348187835845472],[-64.28167205048324,-31.347689167100796],[-64.28060305529513,-31.34813413318461],[-64.2799652514434,-31.348563753612954],[-64.27953406010704,-31.34969916958418],[-64.27868964373995,-31.350658125098853],[-64.27765658116321,-31.351225822155893],[-64.27633605769557,-31.351455968635218],[-64.27462925865574,-31.35203133236946],[-64.2733087351881,-31.352207776542688],[-64.27259008296079,-31.35209270429335],[-64.27230262206987,-31.3517858442734],[-64.27197024541474,-31.351739815184043],[-64.2688620745317,-31.35239189184875],[-64.26737985431289,-31.353005606932296],[-64.26582576887137,-31.354025899394355],[-64.26454117801508,-31.355537139315288],[-64.263696761648,-31.35687191985744],[-64.2615138555076,-31.357569987192466],[-64.2602921467212,-31.357424237297852],[-64.25921416838025,-31.35855954629188],[-64.25895365694785,-31.35921157566508],[-64.25919620207456,-31.35974853763584],[-64.25910637054616,-31.36063835357816],[-64.25922315153309,-31.360937513942865],[-64.25959146079957,-31.36155884396613],[-64.26093893372575,-31.363062292216657],[-64.2615138555076,-31.36474213707339],[-64.26123537776951,-31.368147757802582],[-64.26084910219735,-31.368799720670573],[-64.25919620207456,-31.369804501645923],[-64.25831585309612,-31.370003922546577],[-64.25730075682507,-31.369965572406244],[-64.25700431278132,-31.369773821469796],[-64.25566582300799,-31.369467019157703],[-64.25481242348806,-31.369083514859085],[-64.25255765212492,-31.3677335672783],[-64.25111136451748,-31.366836148213764],[-64.2508328867794,-31.366575358160787],[-64.25024898184473,-31.365440145970368],[-64.24834455344241,-31.36390605365972],[-64.24520943310083,-31.36219551121153],[-64.24414043791272,-31.36181964793744],[-64.24301754380757,-31.361704587451054],[-64.24168803718707,-31.361865672092563],[-64.24012496859271,-31.362563702349433],[-64.23973869302053,-31.363069962809345],[-64.2396668277978,-31.363829348386957],[-64.24052921047057,-31.367288693941273],[-64.24119396378082,-31.36855427635699],[-64.24185871709106,-31.369313617626055],[-64.24242465572006,-31.370318393107016],[-64.24253245355415,-31.37079393195568],[-64.24286483020927,-31.37107005018289],[-64.2430894090303,-31.371637623990917],[-64.24279296498655,-31.37242761966586],[-64.24280194813939,-31.373225278463128],[-64.24246058833141,-31.375388126898073],[-64.24296364489052,-31.37574859679688],[-64.24467044393035,-31.375687240316022],[-64.24651199026279,-31.375089012527884],[-64.24822777245546,-31.374874263162038],[-64.24868591325037,-31.374966298664646],[-64.24879371108446,-31.37512736057727],[-64.24894642468277,-31.3750276556163],[-64.24926981818504,-31.375081342916125],[-64.2494764307004,-31.37531143099649],[-64.24966507691006,-31.376362159401634],[-64.24946744754756,-31.377037073638945],[-64.24956626222881,-31.37808778274525],[-64.24935964971345,-31.381055780752444],[-64.24946744754756,-31.38268929003404],[-64.24907218882254,-31.38319544207473],[-64.24768878328499,-31.38401601610291],[-64.24520943310083,-31.385296710774202],[-64.24248753778994,-31.38631665272086],[-64.23838223694152,-31.388847287908476],[-64.23284861479134,-31.391132469572753],[-64.23168080492198,-31.39162323958864],[-64.22964162922703,-31.392091002372478],[-64.2281953416196,-31.392673785531414],[-64.22569802512976,-31.393333246322438],[-64.22495242344392,-31.393777996333665],[-64.22493445713825,-31.394138395659514],[-64.22246409010693,-31.394636817979446],[-64.22133221284892,-31.395150573601352],[-64.21946371705796,-31.395426620237068],[-64.2190594751801,-31.395388280475085],[-64.2171819962363,-31.3946751580483],[-64.21609503474251,-31.394038710877997],[-64.21602316951979,-31.393563289694722],[-64.2157896075459,-31.393302573830216],[-64.21370551608676,-31.392152348138502],[-64.21255567252308,-31.39166158088811],[-64.21198075074125,-31.39156189347694],[-64.21027395170142,-31.391385523182517],[-64.20761493846042,-31.39148521078094],[-64.20600695410185,-31.391791941189176],[-64.20521643665182,-31.392198357436712],[-64.20413845831088,-31.392926834987268],[-64.20318624410972,-31.39406171506775],[-64.21020208647869,-31.411274936570518],[-64.21184600344863,-31.410768935902976],[-64.21185936058025,-31.410791735264485],[-64.20633933075698,-31.412509260084466],[-64.20903427660933,-31.422344934812823],[-64.20978886144799,-31.425717804773736],[-64.21078599141336,-31.428975575349348],[-64.21046259791109,-31.42918253577384],[-64.21040869899404,-31.429427821611288],[-64.2106422609679,-31.42991072622846],[-64.21092972185883,-31.430163675273374],[-64.21340008889015,-31.43042428872707],[-64.23050401189978,-31.431620035285995],[-64.24263126823541,-31.43240952625741],[-64.25214442709422,-31.43306870780053],[-64.25280019725163,-31.433275659189405],[-64.25319545597665,-31.433237334892603],[-64.25338410218632,-31.43314535651634],[-64.3097713525705,-31.43662514220296],[-64.30978931887618,-31.420558797728255]],[[-64.22523988433485,-31.400901377484775],[-64.22744075678095,-31.40596179346273],[-64.22246409010693,-31.394636817979446],[-64.22523988433485,-31.400901377484775]],[[-64.22905772429236,-31.405670443581787],[-64.22738048495864,-31.40598072380334],[-64.22744075678095,-31.40596179346273],[-64.22905772429236,-31.405670443581787]],[[-64.23087232116627,-31.412555259404666],[-64.22991112381227,-31.40893657731957],[-64.22905772429236,-31.405670443581787],[-64.23087232116627,-31.412555259404666]],[[-64.23694493248694,-31.411343936450116],[-64.23736114132103,-31.4114468672716],[-64.23703476401533,-31.411374603046983],[-64.22573395774111,-31.413544239333767],[-64.23087232116627,-31.412555259404666],[-64.23694493248694,-31.411343936450116]],[[-64.25518971590739,-31.400157626685232],[-64.25325833804654,-31.39617807641095],[-64.25056339219418,-31.39060335527587],[-64.25518971590739,-31.400157626685232]],[[-64.25102153298907,-31.407058180960636],[-64.24874942191937,-31.407887404499157],[-64.24879371108446,-31.407863212575855],[-64.25102153298907,-31.407058180960636]],[[-64.2697603898158,-31.403515959808477],[-64.26971547405161,-31.409427254255874],[-64.2697570826998,-31.403468230745975],[-64.2697603898158,-31.403515959808477]],[[-64.26966157513455,-31.40208983302459],[-64.26969935985828,-31.402635157450838],[-64.26951722752592,-31.40156251297384],[-64.26966157513455,-31.40208983302459]],[[-64.2688420116717,-31.40031598598936],[-64.26865156078038,-31.399953747601444],[-64.26943699631353,-31.401269416937843],[-64.26946063618944,-31.401355776863625],[-64.26882614192033,-31.40027264008067],[-64.2688420116717,-31.40031598598936]],[[-64.26747053186894,-31.397124106843815],[-64.26789264408745,-31.39851027100902],[-64.26777511303791,-31.398286722328468],[-64.26747053186894,-31.397124106843815]],[[-64.26886516898537,-31.400563100018037],[-64.26890326416498,-31.400483288043375],[-64.26891597344874,-31.40051800151993],[-64.26886516898537,-31.400563100018037]],[[-64.26869139462771,-31.400717357217076],[-64.2686552973041,-31.40070236824426],[-64.2687278000366,-31.40068504063808],[-64.26869139462771,-31.400717357217076]],[[-64.29955750779006,-31.37003460264758],[-64.29678255029127,-31.37178614105516],[-64.29688052824338,-31.37170665300402],[-64.29955750779006,-31.37003460264758]],[[-64.25518073275455,-31.37657690536669],[-64.25564785670228,-31.377573933774567],[-64.25514795212663,-31.37654542008673],[-64.25518073275455,-31.37657690536669]],[[-64.26670611784981,-31.39461381393061],[-64.2668139156839,-31.394967820058007],[-64.2621247099008,-31.387221554347715],[-64.26670611784981,-31.39461381393061]],[[-64.23872882632647,-31.41174969010012],[-64.24010700228702,-31.411849934016644],[-64.23893919241767,-31.41179626773744],[-64.23872882632647,-31.41174969010012]]]}},{"type":"Feature","properties":{"NOMBRE":"12","NUMERO":12},"geometry":{"type":"MultiPolygon","coordinates":[[[[-64.10809957128565,-31.460305713930108],[-64.05738069034427,-31.50961717764954],[-64.05738069034427,-31.524986741792887],[-64.07669446895284,-31.524986741792887],[-64.07669446895284,-31.523991281083877],[-64.0873484882225,-31.523930021616817],[-64.10196407789513,-31.524067855361213],[-64.10401223674292,-31.524106142476338],[-64.10811753759135,-31.524443068412754],[-64.11849307912293,-31.524458383199168],[-64.14740086496589,-31.52449667015422],[-64.14741115801667,-31.52385511538869],[-64.14740086496589,-31.5249561123908],[-64.16862805512963,-31.5249561123908],[-64.16902331385465,-31.51974896805354],[-64.16908619592454,-31.51501634100696],[-64.16878076872793,-31.491893476496077],[-64.16882568449213,-31.475246683052298],[-64.16873585296372,-31.471385245701878],[-64.16810703226484,-31.469163314705643],[-64.16807109965347,-31.4683051755135],[-64.16875381926941,-31.46597590091062],[-64.16879873503362,-31.458405358231435],[-64.16877178557509,-31.44052633422289],[-64.16879873503362,-31.431742675096373],[-64.16956230302512,-31.43218724306412],[-64.16985874706887,-31.430462614173866],[-64.16939162312113,-31.427542170240866],[-64.17079299496436,-31.42476728097043],[-64.1559079107065,-31.427296879470365],[-64.15386873501156,-31.428063410997577],[-64.14702357254656,-31.431144804505415],[-64.14503829576866,-31.43166602523369],[-64.14004366278895,-31.43244785089264],[-64.13822008276219,-31.432861755954765],[-64.1362617554428,-31.43366656612188],[-64.13480648468254,-31.434532687439592],[-64.13366562427171,-31.43543712416773],[-64.13110542571197,-31.437882125535992],[-64.10815347020271,-31.460259738037767],[-64.11607661100865,-31.46048195464164],[-64.10809957128565,-31.460305713930108]],[[-64.14552338602208,-31.46012947288689],[-64.12745826565845,-31.46036701508478],[-64.11607661100865,-31.46048195464164],[-64.14552338602208,-31.46012947288689]],[[-64.14643966761189,-31.460190774156942],[-64.1464676151985,-31.460202693843677],[-64.14552338602208,-31.46012947288689],[-64.14643966761189,-31.460190774156942]],[[-64.14839772100552,-31.4591349847488],[-64.14816443295739,-31.458719532600377],[-64.1481566474123,-31.458640786938712],[-64.14839772100552,-31.4591349847488]],[[-64.14870342212787,-31.459761664423915],[-64.1486940958685,-31.459808784642604],[-64.1486858320476,-31.459725605311867],[-64.14870342212787,-31.459761664423915]],[[-64.14858664114094,-31.46035168979987],[-64.14842455381792,-31.460489950431647],[-64.14860936224247,-31.460236893780323],[-64.14858664114094,-31.46035168979987]],[[-64.14829019709717,-31.460604556680106],[-64.14782307314942,-31.460727158558075],[-64.14769121221008,-31.460683818735912],[-64.14834520163303,-31.46055763784204],[-64.14829019709717,-31.460604556680106]],[[-64.14684390948975,-31.46040532828608],[-64.1466001666093,-31.460259227194395],[-64.1472747415,-31.46054693374202],[-64.14684390948975,-31.46040532828608]],[[-64.14773324162101,-31.482517091993216],[-64.13008134628807,-31.482632004354084],[-64.1186698704163,-31.48268551716463],[-64.11866987052885,-31.48268549056303],[-64.14773324162101,-31.482517091993216]],[[-64.14797578674774,-31.463439684043696],[-64.14768815432579,-31.49422131010819],[-64.14773324162101,-31.482517091993216],[-64.14797578674774,-31.463439684043696]],[[-64.14845189384832,-31.44210515948978],[-64.14842494438979,-31.44539301605166],[-64.14814789181925,-31.458552229801644],[-64.1481015508875,-31.458083519980164],[-64.14845189384832,-31.44210515948978]],[[-64.14862257375229,-31.441790929396635],[-64.14905563726312,-31.4416636649984],[-64.14862257375229,-31.441798593557788],[-64.14845189384832,-31.44210515948978],[-64.14862257375229,-31.441790929396635]],[[-64.15553566690872,-31.440403173283833],[-64.15479546439869,-31.440465436620165],[-64.15527909000762,-31.4404037059045],[-64.15553566690872,-31.440403173283833]],[[-64.15263632937852,-31.440741031434964],[-64.15157366603793,-31.44092368831704],[-64.15185650877513,-31.440840568556368],[-64.15263632937852,-31.440741031434964]]],[[[-64.05738069034427,-31.509326150055752],[-64.05738069034427,-31.50961717764954],[-64.09246888534199,-31.475499509702725],[-64.10465902374747,-31.463608256480434],[-64.12118802497528,-31.44754653788878],[-64.11848409597009,-31.449822626379934],[-64.11613949307853,-31.450673271519626],[-64.1143877782745,-31.451048779078782],[-64.11309420426537,-31.451156066676354],[-64.10133525719625,-31.4511484032806],[-64.09027699604873,-31.45186875974103],[-64.07641599121477,-31.451286344308222],[-64.07302934259364,-31.450680934954246],[-64.05708424630052,-31.44664988178566],[-64.05737170719144,-31.463861114566484],[-64.05747950502553,-31.476005160954564],[-64.0581891741,-31.508537307547115],[-64.05738069034427,-31.509326150055752]]]]}},{"type":"Feature","properties":{"NOMBRE":"13","NUMERO":13},"geometry":{"type":"Polygon","coordinates":[[[-64.16958026933081,-31.399084161532016],[-64.1715655461087,-31.399513549066445],[-64.17391913215309,-31.399605560425417],[-64.17581457740259,-31.39937553185887],[-64.17596729100089,-31.381201494001946],[-64.17612898775202,-31.37245829897557],[-64.17608407198783,-31.357439579402662],[-64.17617390351623,-31.338520862953438],[-64.17589542577817,-31.338352065714478],[-64.17594034154237,-31.336272765795744],[-64.17574271217987,-31.33591214452935],[-64.17574271217987,-31.335221589311242],[-64.17596729100089,-31.313144171058724],[-64.16623853647388,-31.316121893397312],[-64.16416342816756,-31.307602901070926],[-64.14730205028464,-31.308523910359153],[-64.13599226085758,-31.308523910359153],[-64.10786600931179,-31.308531585398725],[-64.07748498640288,-31.308523910359153],[-64.05738069034427,-31.308523910359153],[-64.05750645448404,-31.36968945093382],[-64.05788374690339,-31.371131409678753],[-64.05757831970678,-31.37139218708921],[-64.05809934257157,-31.371507235716695],[-64.0581083257244,-31.37117742927436],[-64.06153989010974,-31.371967428818113],[-64.06242922224102,-31.372189854675923],[-64.06232142440693,-31.37249664809863],[-64.082398771007,-31.377205801440716],[-64.12660486613852,-31.387374926640668],[-64.13718702018545,-31.389851854483357],[-64.14782307314942,-31.392321048788386],[-64.15290753765754,-31.393731987809513],[-64.16958026933081,-31.399084161532016]],[[-64.16800439873955,-31.38366165133204],[-64.16800439873955,-31.383661651332027],[-64.17596729100089,-31.381201494001946],[-64.16800439873955,-31.38366165133204]],[[-64.14778714053806,-31.37975202056663],[-64.14781408999659,-31.38131653061821],[-64.14782307314942,-31.392321048788386],[-64.14778714053806,-31.37975202056663]],[[-64.13870517301561,-31.341812348587226],[-64.1192925797258,-31.343293095944322],[-64.13819313330367,-31.341835365563842],[-64.13870517301561,-31.341812348587226]],[[-64.11981360259058,-31.346776212855985],[-64.11951715854683,-31.344942605712305],[-64.11782832581268,-31.333364737926253],[-64.1192925797258,-31.343293095944322],[-64.11981360259058,-31.346776212855985]],[[-64.14752662910567,-31.342172947240623],[-64.14758951117555,-31.348671158413417],[-64.14730205028464,-31.32082619583342],[-64.14752662910567,-31.342172947240623]],[[-64.10333433417996,-31.35535314134444],[-64.10352734803459,-31.355419071497693],[-64.10342833180823,-31.35541439992335],[-64.10333433417996,-31.35535314134444]],[[-64.10282646056788,-31.354992482041606],[-64.1000416831871,-31.352652721248642],[-64.10303331304415,-31.355156964562266],[-64.10279103457763,-31.354999070335644],[-64.10282646056788,-31.354992482041606]],[[-64.0762722607693,-31.354025899394355],[-64.07730532334604,-31.357378210968402],[-64.07735347739195,-31.357543262271147],[-64.0762722607693,-31.354025899394355]],[[-64.12426026324697,-31.3758483009928],[-64.13308171933703,-31.3774512231569],[-64.13699093443797,-31.378162816197253],[-64.12752114772833,-31.376507879931456],[-64.12426026324697,-31.3758483009928]]]}},{"type":"Feature","properties":{"NOMBRE":"14","NUMERO":14},"geometry":{"type":"Polygon","coordinates":[[[-64.263696761648,-31.35687191985744],[-64.26454117801508,-31.355537139315288],[-64.26582576887137,-31.354025899394355],[-64.26737985431289,-31.353005606932296],[-64.2688620745317,-31.35239189184875],[-64.27197024541474,-31.351739815184043],[-64.27230262206987,-31.3517858442734],[-64.27259008296079,-31.35209270429335],[-64.2733087351881,-31.352207776542688],[-64.27462925865574,-31.35203133236946],[-64.27633605769557,-31.351455968635218],[-64.27765658116321,-31.351225822155893],[-64.27868964373995,-31.350658125098853],[-64.27953406010704,-31.34969916958418],[-64.2799652514434,-31.348563753612954],[-64.28060305529513,-31.34813413318461],[-64.28167205048324,-31.347689167100796],[-64.28197747767983,-31.348187835845472],[-64.28158221895482,-31.349200508852398],[-64.28186967984574,-31.35013645451163],[-64.28166306733038,-31.351455968635218],[-64.28200442713836,-31.352062018336408],[-64.28206730920824,-31.35257600679436],[-64.28260629837872,-31.35287519281216],[-64.28258833207303,-31.353228077660983],[-64.28293867503385,-31.353580961185582],[-64.28296562449238,-31.35398754273514],[-64.28320816961907,-31.35423302508376],[-64.28422326589013,-31.35653439093556],[-64.28532819368961,-31.35770806583157],[-64.28617261005667,-31.35833708817704],[-64.28676549814419,-31.358482836656567],[-64.28653193617032,-31.359924967328272],[-64.28704397588227,-31.3597331959078],[-64.28776262810956,-31.355521796900057],[-64.28891247167324,-31.354210011140797],[-64.28961315759484,-31.3537574024513],[-64.28998146686135,-31.352882864236005],[-64.28991858479145,-31.34999069309505],[-64.29025096144657,-31.349522720704417],[-64.28939756192666,-31.346216160908856],[-64.2890112863545,-31.34623150484224],[-64.28956824183064,-31.346193145004076],[-64.2900173994727,-31.34605504945714],[-64.29059232125454,-31.34558705748484],[-64.29061028756023,-31.346507695215255],[-64.29083486638126,-31.34673018131488],[-64.29331421656542,-31.347067745426603],[-64.29371845844328,-31.348080430493088],[-64.29331421656542,-31.35028988733766],[-64.29342201439952,-31.350504692873574],[-64.2960989939462,-31.34907008945561],[-64.29519169550923,-31.347742870015708],[-64.29501203245242,-31.346837588209105],[-64.29752731524795,-31.344950277783184],[-64.29786867505591,-31.344888901198637],[-64.29830884954514,-31.345165095513742],[-64.29859631043604,-31.34505001464766],[-64.29836274846218,-31.343646016745417],[-64.29951259202585,-31.342901812638914],[-64.29960242355426,-31.342418460426533],[-64.30086006495203,-31.340999078465465],[-64.30092294702192,-31.340032352006055],[-64.30253093138049,-31.33799145241675],[-64.30350111188734,-31.337899380715008],[-64.3037975559311,-31.338083524028406],[-64.30435451140725,-31.339196048881142],[-64.30476773643795,-31.339318809438364],[-64.30470485436805,-31.337101422192692],[-64.30488451742488,-31.335835416422025],[-64.30591758000162,-31.335858434860793],[-64.30586368108457,-31.33663338568014],[-64.31002288085004,-31.33659502192834],[-64.31007677976709,-31.322798402790408],[-64.30922338024719,-31.32305931423529],[-64.30841489649147,-31.323512070614846],[-64.30751658120735,-31.323627177821837],[-64.3069596257312,-31.324179690456344],[-64.30633080503232,-31.324993105934094],[-64.30617809143402,-31.325614673401613],[-64.3055852033465,-31.326742692767876],[-64.30557622019366,-31.327617473991044],[-64.30386043800098,-31.32744865719504],[-64.29825495062809,-31.32871477578541],[-64.29821003486387,-31.326988246212604],[-64.29723087120419,-31.326781060535833],[-64.29722188805135,-31.326635262934396],[-64.29935987842755,-31.327072655061297],[-64.29901851861959,-31.316697473197273],[-64.2987400408815,-31.316060498011016],[-64.29898258600822,-31.315270028837407],[-64.29892868709118,-31.314011404033902],[-64.28824367571583,-31.314270910795987],[-64.28811297107038,-31.30729589597388],[-64.28706194218796,-31.30733427166572],[-64.28700804327092,-31.308186207998972],[-64.28488801920038,-31.308700436111078],[-64.28460055830948,-31.307863854616777],[-64.28097136456162,-31.308784861353768],[-64.28024372918149,-31.30831668405437],[-64.27942626227293,-31.309444910642938],[-64.2757970685251,-31.307472424026923],[-64.27489875324098,-31.308662060975756],[-64.27462925865574,-31.308523910359153],[-64.26985022134423,-31.30850856027813],[-64.24052921047057,-31.30837040943642],[-64.23380981214535,-31.30836273438372],[-64.23380981214535,-31.308531585398725],[-64.22073034160857,-31.308523910359153],[-64.21953558228068,-31.3107112713303],[-64.21800844629769,-31.314003729440817],[-64.21808031152041,-31.314233966961133],[-64.21738860875165,-31.315699799308202],[-64.21509790477714,-31.31952927458083],[-64.21114531752701,-31.327118696219586],[-64.21004937288039,-31.332144720585124],[-64.20836054014624,-31.335559194717653],[-64.20801019718544,-31.336671749416297],[-64.20785748358713,-31.34345421212646],[-64.20747120801497,-31.344290477400623],[-64.20276403592618,-31.351540355536514],[-64.20260233917503,-31.3529135499251],[-64.20403964362963,-31.36079944004668],[-64.20487507684386,-31.36069204909834],[-64.20490202630238,-31.360860806247793],[-64.20618661715866,-31.36067670752427],[-64.20566559429388,-31.357915183410032],[-64.21147769418214,-31.355836315911933],[-64.2115136267935,-31.356066451107758],[-64.2181881093545,-31.35512289322538],[-64.21813421043746,-31.354862070676965],[-64.21848455339827,-31.354808371827193],[-64.22013745352105,-31.362671091159676],[-64.22052372909323,-31.363077633401403],[-64.22193408408928,-31.36209579253018],[-64.22239222488419,-31.362502337259933],[-64.22340732115525,-31.36179663585142],[-64.22349204385516,-31.361864458837243],[-64.21976016110172,-31.36444298881648],[-64.21992185785287,-31.364665432482887],[-64.22020033559093,-31.3645350345354],[-64.22037999864776,-31.3647114552447],[-64.22021830189662,-31.364895546066595],[-64.22050576278754,-31.365685598416555],[-64.22033508288355,-31.36586201696634],[-64.220649493233,-31.366360589338537],[-64.22360495051775,-31.379314873394854],[-64.22371272331752,-31.379354306168665],[-64.22322765809841,-31.37991307427503],[-64.22315579287569,-31.380587963002604],[-64.22373071465752,-31.381738330339207],[-64.22360495051775,-31.382451551012917],[-64.2233534222382,-31.382742972955533],[-64.22598548602066,-31.38574916759117],[-64.2265154920383,-31.386354996187034],[-64.22773720082469,-31.386914809010385],[-64.22833008891222,-31.387643327550606],[-64.23214792886972,-31.38952978087404],[-64.232642002276,-31.390158590227138],[-64.23284861479134,-31.391132469572753],[-64.23838223694152,-31.388847287908476],[-64.24248753778994,-31.38631665272086],[-64.24520943310083,-31.385296710774202],[-64.24829065452536,-31.383686253569998],[-64.24907218882254,-31.38319544207473],[-64.24946744754756,-31.38268929003404],[-64.24935964971345,-31.381055780752444],[-64.24956626222881,-31.37808778274525],[-64.24946744754756,-31.377037073638945],[-64.24966507691006,-31.376362159401634],[-64.2494764307004,-31.37531143099649],[-64.2491081214339,-31.3750276556163],[-64.24879371108446,-31.37512736057727],[-64.24868591325037,-31.374966298664646],[-64.24767980013215,-31.374904941672924],[-64.24651199026279,-31.375089012527884],[-64.24467044393035,-31.375687240316022],[-64.24338585307406,-31.37577160546686],[-64.24296364489052,-31.37574859679688],[-64.24246058833141,-31.375388126898073],[-64.24280194813939,-31.373225278463128],[-64.24279296498655,-31.37242761966586],[-64.2430894090303,-31.371637623990917],[-64.24286483020927,-31.37107005018289],[-64.24253245355415,-31.37079393195568],[-64.24242465572006,-31.370318393107016],[-64.24185871709106,-31.369313617626055],[-64.24119396378082,-31.36855427635699],[-64.24061904199897,-31.3675418117878],[-64.2396668277978,-31.363829348386957],[-64.23973869302053,-31.363069962809345],[-64.24012496859271,-31.362563702349433],[-64.24168803718707,-31.361865672092563],[-64.24301754380757,-31.361704587451054],[-64.24414043791272,-31.36181964793744],[-64.24520943310083,-31.36219551121153],[-64.24834455344241,-31.36390605365972],[-64.25024898184473,-31.365440145970368],[-64.2508328867794,-31.366575358160787],[-64.25177611782775,-31.367304034436224],[-64.25481242348806,-31.369083514859085],[-64.25566582300799,-31.369467019157703],[-64.25700431278132,-31.369773821469796],[-64.25730075682507,-31.369965572406244],[-64.25831585309612,-31.370003922546577],[-64.25945671350696,-31.369712461087513],[-64.26050774238938,-31.369091184960393],[-64.2611006304769,-31.368492915178432],[-64.2615138555076,-31.36474213707339],[-64.26093893372575,-31.363062292216657],[-64.25959146079957,-31.36155884396613],[-64.25922315153309,-31.360937513942865],[-64.25910637054616,-31.36063835357816],[-64.25919620207456,-31.35974853763584],[-64.25895365694785,-31.35921157566508],[-64.25921416838025,-31.35855954629188],[-64.2602921467212,-31.357424237297852],[-64.2615138555076,-31.357569987192466],[-64.263696761648,-31.35687191985744]],[[-64.27544701457698,-31.314935208205096],[-64.27681216479616,-31.312959978956254],[-64.27942626227293,-31.309444910642938],[-64.27544701457698,-31.314935208205096]],[[-64.26356201435539,-31.317656765046365],[-64.2630859072548,-31.318339774887125],[-64.26985022134423,-31.30850856027813],[-64.26356201435539,-31.317656765046365]],[[-64.24121586353803,-31.35744874835168],[-64.24117599747512,-31.357424237297852],[-64.24121249537382,-31.35738834809625],[-64.24121586353803,-31.35744874835168]],[[-64.24294567858485,-31.356963972989476],[-64.2413915931433,-31.3575393030229],[-64.24137573350622,-31.357547041951566],[-64.24131312072826,-31.357508545456835],[-64.24294567858485,-31.356963972989476]],[[-64.25035677967882,-31.35098033195716],[-64.2510551513906,-31.350473181938476],[-64.24435603358091,-31.356120149239064],[-64.25035677967882,-31.35098033195716]],[[-64.25167730314648,-31.350021379727846],[-64.25337511903346,-31.349139135041142],[-64.25147002009942,-31.350171907453603],[-64.25167730314648,-31.350021379727846]],[[-64.26110961362974,-31.320657366859216],[-64.2404354092146,-31.32061133370387],[-64.24043540921627,-31.320611333485182],[-64.26152283866044,-31.320657366859216],[-64.26110961362974,-31.320657366859216]],[[-64.2622452274464,-31.334145622218376],[-64.2611925368584,-31.334088076300887],[-64.26139707452066,-31.334032287890196],[-64.26224532632561,-31.334143185941517],[-64.2622452274464,-31.334145622218376]],[[-64.26262826433458,-31.336106794564945],[-64.25967230917516,-31.33788403542263],[-64.25317748967096,-31.34177398694701],[-64.26262825272923,-31.336106774067904],[-64.26262826433458,-31.336106794564945]],[[-64.27759392021616,-31.346890512748125],[-64.27759385996667,-31.346890516672],[-64.27764759801038,-31.33638018462923],[-64.27756674963481,-31.332252144130624],[-64.27766556431605,-31.33669476765049],[-64.27759392021616,-31.346890512748125]],[[-64.27383874120572,-31.33497605734583],[-64.27533892773019,-31.335651268709203],[-64.27381535110965,-31.334978663230896],[-64.27383874120572,-31.33497605734583]],[[-64.27123362688177,-31.334423608081376],[-64.27204211063747,-31.334515683184005],[-64.2711010207295,-31.33444638764918],[-64.27123362688177,-31.334423608081376]],[[-64.28840941511413,-31.34348490089177],[-64.28699007696522,-31.34429814952469],[-64.28393580499922,-31.346024361530294],[-64.28369585145138,-31.346097901055895],[-64.28840941511413,-31.34348490089177]],[[-64.2825847048801,-31.346438437849866],[-64.2820583260554,-31.346599758492722],[-64.28186957452479,-31.346612051369746],[-64.2825847048801,-31.346438437849866]],[[-64.27464967817741,-31.316088851221625],[-64.28324410223044,-31.3198899586158],[-64.2824715510861,-31.31955997114823],[-64.2746496550269,-31.316088884717225],[-64.27464967817741,-31.316088851221625]],[[-64.24113108171092,-31.35772340789007],[-64.24114591995446,-31.357714538262808],[-64.24114883476669,-31.357740673393554],[-64.24113108171092,-31.35772340789007]],[[-64.2414460082633,-31.358029685141943],[-64.24130561153754,-31.357893144465404],[-64.24140057629616,-31.35793819644614],[-64.2414460082633,-31.358029685141943]],[[-64.23997619881762,-31.358333346236208],[-64.24013395174555,-31.35833708817704],[-64.24001717075862,-31.358352430132886],[-64.23997619881762,-31.358333346236208]],[[-64.26101130669191,-31.3341375074775],[-64.25825297102624,-31.335129514899275],[-64.26032807933257,-31.334323859951873],[-64.26101130669191,-31.3341375074775]],[[-64.25572454206697,-31.33635076889579],[-64.25544124418694,-31.336487603340096],[-64.25444411422157,-31.33664105842862],[-64.25572454206697,-31.33635076889579]],[[-64.25106962499561,-31.33901099023152],[-64.2510484824476,-31.339019580299535],[-64.2426761839996,-31.33680985873696],[-64.25106962499561,-31.33901099023152]],[[-64.24039446317795,-31.335835416422025],[-64.24034954741374,-31.336426221234618],[-64.24041242948363,-31.329443745430275],[-64.24039446317795,-31.335835416422025]],[[-64.24052022731772,-31.350098096266017],[-64.23959496257507,-31.350750184313867],[-64.23716951130795,-31.352414906236667],[-64.24052022731772,-31.350098096266017]],[[-64.24037178141269,-31.327564005935642],[-64.24036751371942,-31.32807020844928],[-64.2403405642609,-31.328561307772386],[-64.24037178141269,-31.327564005935642]]]}}]}